     2.10           N: GPS NAV DATA                         RINEX VERSION / TYPE
teqc  2013Mar15     gpsops              20140524 00:23:22UTCPGM / RUN BY / DATE
Linux 2.4.21-27.ELsmp|Opteron|gcc -static|Linux x86_64|=+   COMMENT
GLPS                                    MARKER NAME         COMMENT
42005M002                               MARKER NUMBER       COMMENT
-33801.4662 -6377516.5323 -82154.3508                       COMMENT
                                                            COMMENT
This data is provided as a public service by NASA/JPL.      COMMENT
No warranty is expressed or implied regarding suitability   COMMENT
for use.  For further information, contact:                 COMMENT
Dave Stowers, NASA/JPL m/s 238-600                          COMMENT
4800 Oak Grove Drive, Pasadena CA 91109 USA                 COMMENT
                                                            END OF HEADER
 8 14  5 24  0  0  0.0 1.375097781420D-05 2.273736754432D-13 0.000000000000D+00
    1.000000000000D+02-5.787500000000D+01 3.752299155464D-09-1.708094327956D-01
   -2.902001142502D-06 1.369091530796D-02 6.956979632378D-06 5.153359228134D+03
    5.184000000000D+05 1.229345798492D-07 1.687434128405D+00 1.508742570877D-07
    9.964993927253D-01 2.647187500000D+02-2.774579322217D+00-7.998904615056D-09
   -1.767930784271D-10 0.000000000000D+00 1.793000000000D+03 0.000000000000D+00
    2.800000000000D+00 0.000000000000D+00-4.190951585770D-09 1.000000000000D+02
    5.112000000000D+05 4.000000000000D+00
10 14  5 24  0  0  0.0-1.267902553082D-04-1.591615728103D-12 0.000000000000D+00
    2.600000000000D+01 6.343750000000D+01 4.619120976358D-09-2.127303842012D+00
    3.231689333916D-06 1.355131191667D-02 1.049786806107D-05 5.153735954285D+03
    5.184000000000D+05 5.774199962616D-08-5.167480072801D-01-1.415610313416D-07
    9.422351266408D-01 1.678125000000D+02 8.651685085982D-01-7.843183842946D-09
    4.785913638228D-11 0.000000000000D+00 1.793000000000D+03 0.000000000000D+00
    2.800000000000D+00 0.000000000000D+00-2.793967723846D-09 2.600000000000D+01
    5.112000000000D+05 4.000000000000D+00
11 14  5 24  0  0  0.0-4.914086312056D-04-3.069544618484D-12 0.000000000000D+00
    6.600000000000D+01-4.506250000000D+01 6.758495804193D-09 4.981958858469D-01
   -2.147629857063D-06 1.494606072083D-02 5.347654223442D-06 5.153696432114D+03
    5.184000000000D+05-1.732259988785D-07-1.896275024952D+00 9.313225746155D-09
    8.902407549694D-01 2.417812500000D+02 1.286486078829D+00-9.475394688222D-09
   -3.503717372464D-10 0.000000000000D+00 1.793000000000D+03 0.000000000000D+00
    2.000000000000D+00 0.000000000000D+00-1.210719347000D-08 6.600000000000D+01
    5.112000000000D+05 4.000000000000D+00
13 14  5 24  0  0  0.0-3.224704414606D-06-3.865352482535D-12 0.000000000000D+00
    1.800000000000D+01 5.159375000000D+01 4.237676516237D-09 2.652392754256D+00
    2.739951014519D-06 5.382731324062D-03 4.049390554428D-06 5.153587554932D+03
    5.184000000000D+05 4.097819328308D-08 6.233399519025D-01 5.215406417847D-08
    9.778448538603D-01 3.105000000000D+02 2.263814771303D+00-8.085693944465D-09
    8.107480566251D-11 0.000000000000D+00 1.793000000000D+03 0.000000000000D+00
    2.000000000000D+00 0.000000000000D+00-1.117587089539D-08 1.800000000000D+01
    5.112000000000D+05 4.000000000000D+00
17 14  5 24  0  0  0.0-9.560445323586D-05-3.069544618484D-12 0.000000000000D+00
    4.700000000000D+01 5.625000000000D+00 4.758769650429D-09 3.089366118282D+00
    3.203749656677D-07 9.300003293902D-03 5.170702934265D-06 5.153589891434D+03
    5.184000000000D+05 7.078051567078D-08-2.581968480642D+00-2.291053533554D-07
    9.687529364940D-01 2.806875000000D+02-2.098758764172D+00-8.101051727036D-09
    1.685784505406D-10 0.000000000000D+00 1.793000000000D+03 0.000000000000D+00
    2.000000000000D+00 0.000000000000D+00-1.024454832077D-08 4.700000000000D+01
    5.112000000000D+05 4.000000000000D+00
20 14  5 24  0  0  0.0 1.925388351083D-04 3.865352482535D-12 0.000000000000D+00
    8.800000000000D+01 4.171875000000D+01 5.106284125801D-09-1.081873821599D+00
    2.123415470123D-06 5.758956889622D-03 1.087225973606D-05 5.153798240662D+03
    5.184000000000D+05-2.793967723846D-08-5.922912580054D-01 1.303851604462D-07
    9.269396949189D-01 1.516250000000D+02 1.333747894422D+00-8.354276560581D-09
   -1.546492989069D-10 0.000000000000D+00 1.793000000000D+03 0.000000000000D+00
    2.000000000000D+00 0.000000000000D+00-8.381903171539D-09 8.800000000000D+01
    5.112000000000D+05 4.000000000000D+00
23 14  5 24  0  0  0.0-2.293894067407D-05-3.069544618484D-12 0.000000000000D+00
    9.700000000000D+01 6.553125000000D+01 4.863059708814D-09 1.980576681369D+00
    3.399327397346D-06 9.375363239087D-03 4.371628165245D-06 5.153785089493D+03
    5.184000000000D+05-1.639127731323D-07 5.262474394953D-01 1.117587089539D-07
    9.521083724611D-01 2.925312500000D+02-2.788228693145D+00-8.449994833345D-09
    9.678974596714D-11 0.000000000000D+00 1.793000000000D+03 0.000000000000D+00
    2.000000000000D+00 0.000000000000D+00-2.002343535423D-08 9.700000000000D+01
    5.112000000000D+05 4.000000000000D+00
28 14  5 24  0  0  0.0 3.570513799787D-04 2.842170943040D-12 0.000000000000D+00
    4.400000000000D+01 3.093750000000D+00 3.781586089668D-09-2.355167352002D+00
    1.396983861923D-07 1.911344588734D-02 1.033768057823D-05 5.153674901962D+03
    5.184000000000D+05 2.179294824600D-07 2.675522655035D+00 9.685754776001D-08
    9.868626949067D-01 1.871562500000D+02-1.714922515646D+00-7.371021318339D-09
    4.253748614275D-10 0.000000000000D+00 1.793000000000D+03 0.000000000000D+00
    2.000000000000D+00 0.000000000000D+00-1.071020960808D-08 4.400000000000D+01
    5.112000000000D+05 4.000000000000D+00
 6 14  5 23 23 59 44.0 3.959983587265D-06 6.139089236967D-12 0.000000000000D+00
    1.600000000000D+01-5.771875000000D+01 4.643050544549D-09-8.169173215083D-01
   -2.829357981682D-06 3.534602001309D-04 7.659196853638D-06 5.181235155106D+03
    5.183840000000D+05 1.676380634308D-08-1.581263324250D+00-1.303851604462D-08
    9.604309207286D-01 2.244375000000D+02 2.457029935559D+00-7.925330121811D-09
   -4.350181202508D-10 0.000000000000D+00 1.793000000000D+03 0.000000000000D+00
    2.000000000000D+00 6.300000000000D+01 6.053596735001D-09 1.600000000000D+01
    5.141700000000D+05 4.000000000000D+00
26 14  5 24  0  0  0.0 6.940541788936D-05-1.182343112305D-11 0.000000000000D+00
    1.300000000000D+01 4.034375000000D+01 4.336966366343D-09 1.857464969866D+00
    1.689419150352D-06 2.136863337364D-02 4.030764102936D-06 5.153688966751D+03
    5.184000000000D+05 3.166496753693D-08 6.146041863313D-01-5.345791578293D-07
    9.752375461697D-01 3.085937500000D+02 1.284301994802D+00-8.126052768429D-09
    1.492919328940D-10 0.000000000000D+00 1.793000000000D+03 0.000000000000D+00
    2.000000000000D+00 0.000000000000D+00-6.053596735001D-09 1.300000000000D+01
    5.146800000000D+05 4.000000000000D+00
 2 14  5 24  0  0  0.0 4.970403388143D-04 2.160049916711D-12 0.000000000000D+00
    7.300000000000D+01-4.756250000000D+01 5.264147844316D-09 1.574821130421D+00
   -2.460554242134D-06 1.355622510891D-02 8.460134267807D-06 5.153607234955D+03
    5.184000000000D+05-2.831220626831D-07-1.601977246543D+00 1.601874828339D-07
    9.390349640840D-01 2.112187500000D+02-2.423890765374D+00-8.491782288246D-09
   -5.453798601174D-10 0.000000000000D+00 1.793000000000D+03 0.000000000000D+00
    2.000000000000D+00 0.000000000000D+00-2.048909664154D-08 7.300000000000D+01
    5.160600000000D+05 4.000000000000D+00
 9 14  5 24  0  0  0.0 3.298320807517D-04 2.842170943040D-12 0.000000000000D+00
    1.100000000000D+02-6.440625000000D+01 4.004452515807D-09 1.380308056468D+00
   -3.671273589134D-06 1.717804570217D-02 6.057322025299D-06 5.153682670593D+03
    5.184000000000D+05 1.471489667892D-07 1.567610636887D+00-3.688037395477D-07
    9.817779032647D-01 2.737812500000D+02 1.808622500547D+00-7.996761668650D-09
   -1.850077063136D-10 0.000000000000D+00 1.793000000000D+03 0.000000000000D+00
    2.800000000000D+00 6.300000000000D+01-6.053596735001D-09 1.100000000000D+02
    5.170800000000D+05 4.000000000000D+00
 8 14  5 23 23 59 44.0 1.374306157231D-05 2.273736754432D-13 0.000000000000D+00
    2.200000000000D+01-5.787500000000D+01 3.751941997730D-09-1.731427710400D-01
   -2.902001142502D-06 1.369091798551D-02 6.956979632378D-06 5.153359226227D+03
    5.183840000000D+05 1.229345798492D-07 1.687434261530D+00 1.508742570877D-07
    9.964993941882D-01 2.647187500000D+02-2.774580109267D+00-7.998904615056D-09
   -1.764359206929D-10 0.000000000000D+00 1.793000000000D+03 0.000000000000D+00
    2.000000000000D+00 0.000000000000D+00-4.190951585770D-09 2.200000000000D+01
    5.180700000000D+05 4.000000000000D+00
